{
  "norad_id": 57997,
  "name": "STARLINK-30523",
  "history": [
    {
      "epoch": "2026-03-28T16:48:40.821408Z",
      "apogee_km": 484.1358708483813,
      "perigee_km": 481.92657468065045,
      "latitude_deg": 5.419783198436119e-06,
      "longitude_deg": -118.57463644115384,
      "height_km": 482.9577933375526,
      "semi_major_axis_km": 6861.168222764515,
      "eccentricity": 0.000161,
      "inclination_deg": 43.0063,
      "raan_deg": 319.7126,
      "arg_perigee_deg": 262.2465,
      "mean_anomaly_deg": 97.8204,
      "mean_motion_rev_day": 15.27585969
    },
    {
      "epoch": "2026-03-29T00:39:28.288800Z",
      "apogee_km": 483.94830727420594,
      "perigee_km": 482.174001431491,
      "latitude_deg": -1.816790551967075e-05,
      "longitude_deg": 121.55841243260221,
      "height_km": 483.03570946444455,
      "semi_major_axis_km": 6861.198154352848,
      "eccentricity": 0.0001293,
      "inclination_deg": 43.0053,
      "raan_deg": 317.8657,
      "arg_perigee_deg": 257.1432,
      "mean_anomaly_deg": 102.9275,
      "mean_motion_rev_day": 15.27575973
    },
    {
      "epoch": "2026-03-30T00:11:49.023456Z",
      "apogee_km": 483.88246895554676,
      "perigee_km": 482.2179449391415,
      "latitude_deg": 9.722045664547438e-06,
      "longitude_deg": 121.96573207660997,
      "height_km": 483.00318830527044,
      "semi_major_axis_km": 6861.187206947344,
      "eccentricity": 0.0001213,
      "inclination_deg": 43.0056,
      "raan_deg": 312.3261,
      "arg_perigee_deg": 257.8011,
      "mean_anomaly_deg": 102.2705,
      "mean_motion_rev_day": 15.27579629
    }
  ]
}